{
  "properties": {
    "path": "brands/shop/deli",
    "exclude": {
      "generic": ["^deli(katesy|catessen)?$"]
    }
  },
  "items": [
    {
      "displayName": "Comtesse du Barry",
      "id": "comtessedubarry-bbd711",
      "locationSet": {"include": ["fr"]},
      "tags": {
        "brand": "Comtesse du Barry",
        "brand:wikidata": "Q17176547",
        "brand:wikipedia": "fr:Comtesse du Barry (entreprise)",
        "name": "Comtesse du Barry",
        "shop": "deli"
      }
    },
    {
      "displayName": "Vom Fass",
      "id": "vomfass-a3c745",
      "locationSet": {
        "include": [
          "at",
          "be",
          "br",
          "ca",
          "ch",
          "cz",
          "de",
          "dk",
          "es",
          "fr",
          "gb",
          "hk",
          "hr",
          "hu",
          "il",
          "it",
          "jp",
          "lv",
          "mx",
          "my",
          "ph",
          "sg",
          "th",
          "us"
        ]
      },
      "tags": {
        "brand": "Vom Fass",
        "brand:wikidata": "Q2533008",
        "brand:wikipedia": "de:Vom Fass",
        "name": "Vom Fass",
        "shop": "deli"
      }
    },
    {
      "displayName": "さぼてん",
      "id": "saboten-39c92c",
      "locationSet": {"include": ["jp"]},
      "tags": {
        "brand": "さぼてん",
        "brand:en": "Saboten",
        "brand:ja": "さぼてん",
        "brand:wikidata": "Q93277389",
        "name": "さぼてん",
        "name:en": "Saboten",
        "name:ja": "さぼてん",
        "official_name": "新宿さぼてん",
        "official_name:en": "Shinjuku Saboten",
        "official_name:ja": "新宿さぼてん",
        "shop": "deli"
      }
    },
    {
      "displayName": "京樽",
      "id": "kyotaru-39c92c",
      "locationSet": {"include": ["jp"]},
      "matchTags": ["amenity/fast_food"],
      "tags": {
        "brand": "京樽",
        "brand:en": "Kyotaru",
        "brand:ja": "京樽",
        "brand:wikidata": "Q11374503",
        "brand:wikipedia": "ja:京樽",
        "name": "京樽",
        "name:en": "Kyotaru",
        "name:ja": "京樽",
        "shop": "deli"
      }
    },
    {
      "displayName": "周黑鸭",
      "id": "zhouheiya-5c76da",
      "locationSet": {"include": ["cn"]},
      "tags": {
        "brand": "周黑鸭",
        "brand:en": "Zhouheiya",
        "brand:wikidata": "Q15911728",
        "brand:wikipedia": "zh:周黑鸭",
        "name": "周黑鸭",
        "name:en": "Zhouheiya",
        "shop": "deli"
      }
    },
    {
      "displayName": "煌上煌",
      "id": "huangshanghuang-5c76da",
      "locationSet": {"include": ["cn"]},
      "tags": {
        "brand": "煌上煌",
        "brand:en": "Huangshanghuang",
        "brand:wikidata": "Q15954067",
        "brand:wikipedia": "zh:煌上煌",
        "name": "煌上煌",
        "name:en": "Huangshanghuang",
        "shop": "deli"
      }
    },
    {
      "displayName": "绝味鸭脖",
      "id": "jueweiduckneck-5c76da",
      "locationSet": {"include": ["cn"]},
      "tags": {
        "brand": "绝味鸭脖",
        "brand:en": "Juewei Duck Neck",
        "brand:wikidata": "Q17573681",
        "brand:wikipedia": "zh:绝味鸭脖",
        "name": "绝味鸭脖",
        "name:en": "Juewei Duck Neck",
        "shop": "deli"
      }
    }
  ]
}
